#cP2014  2 17  0  0  0.00000000      96 d+D   IGb08 FIT AIUB
## 1780  86400.00000000   900.00000000 56705 0.0000000000000
+   54   G01G02G03G04G05G06G07G08G09G10G11G12G13G14G15G16G17
+        G18G19G20G21G22G23G24G25G26G27G28G29G31G32R01R02R03
+        R04R05R06R07R08R09R10R11R12R13R14R15R16R17R19R20R21
+        R22R23R24  0  0  0  0  0  0  0  0  0  0  0  0  0  0
+          0  0  0  0  0  0  0  0  0  0  0  0  0  0  0  0  0
++         5  5  4  6  4  4  5  6  6  4  5  4  4  4  4  4  4
++         4  4  4  5  4  4  5  4  4  4  4  4  6  4  4  4  4
++         4  4  4  4  4  6  6  6  6  6  7  6  6  5  4  5  5
++         5  4  5  0  0  0  0  0  0  0  0  0  0  0  0  0  0
++         0  0  0  0  0  0  0  0  0  0  0  0  0  0  0  0  0
%c M  cc GPS ccc cccc cccc cccc cccc ccccc ccccc ccccc ccccc
%c cc cc ccc ccc cccc cccc cccc cccc ccccc ccccc ccccc ccccc
%f  1.2500000  1.025000000  0.00000000000  0.000000000000000
%f  0.0000000  0.000000000  0.00000000000  0.000000000000000
%i    0    0    0    0      0      0      0      0         0
%i    0    0    0    0      0      0      0      0         0
/* Center for Orbit Determination in Europe (CODE)          
/* Final GNSS orbits and GPS clocks for year-day 14048      
/* Note: Middle day of a 3-day arc GPS/GLONASS solution     
/* PCV:IGS08      OL/AL:FES2004  NONE     YN ORB:CoN CLK:CoN
*  2014  2 17  9  0  0.00000000
PG01  21274.296674  10779.569389  11787.179619     -0.329119
PG02 -13341.813487 -21932.967523   8020.954087    479.134059
PG03  12393.607090  11652.052100 -20973.957679    326.892357
PG04    993.215060 -18621.685767  18515.751148      5.606098
PG05  -5425.561675 -20823.372585 -15509.111508   -388.174600
PG06   3567.294060  15167.394688 -21447.366869    278.792024
PG07  16467.227257  -2654.179899 -20677.412985    314.822510
PG08   8473.942396 -12216.306352 -21784.347404     11.969393
PG09   6890.461792 -14058.591973 -21962.814457    306.134597
PG10   8508.291920 -24888.518667    785.369434   -114.661533
PG11  23616.266300  12347.811915    762.005619   -465.017371
PG12 -13528.661092  -5618.001308  22108.096538    186.971168
PG13  25988.672118  -5189.493534  -2850.466979     28.758919
PG14 -15092.835011  14050.816299  16871.452753    197.597404
PG15 -20782.645539  -6213.170947 -15567.721708   -163.596738
PG16   4100.239538  20357.307669 -16380.788932   -231.180351
PG17  13467.644011 -14859.969988  17545.081463    -69.014920
PG18 -15911.425882  14607.884009 -14802.412937    302.413197
PG19  19578.756797   8605.699020 -16151.152620   -439.408471
PG20  15635.844060   2707.456510  21104.685665    162.476652
PG21 -16059.143802   4732.591052 -20102.521148   -344.445316
PG22 -10911.612326  23567.272401  -4961.899452    213.921229
PG23  25180.922657   1020.800562   9103.307538      3.240014
PG24 -21046.941261 -14522.084147   7337.949770    -23.457793
PG25 -16115.049446   8724.395766  19121.306372     14.951103
PG26  -9152.615530 -13556.067382 -21644.265111    162.653810
PG27   6914.596569  13827.821841 -21601.607740    -18.871825
PG28  13060.903245 -21718.772688  -7085.891820    333.187303
PG29 -26156.123474   4471.518400    365.321744    511.653805
PG31   2221.084310  20026.901391  17299.087921    333.298246
PG32   8791.239283  15945.120992  19577.635893   -484.212247
PR01  15965.290288  -8681.314933  17884.595434 999999.999999
PR02  14942.454430 -20491.315288   2880.579689 999999.999999
PR03   5321.644472 -20476.375405 -14231.412654 999999.999999
PR04  -7596.275222  -8289.973588 -22888.435749 999999.999999
PR05 -15929.931619   8517.480204 -18029.398660 999999.999999
PR06 -14733.334342  20689.559917  -2216.173643 999999.999999
PR07  -5216.393093  20422.592907  14382.664658 999999.999999
PR08   7390.364151   8603.005079  22895.151880 999999.999999
PR09  -4337.143597  13438.538175  21196.095180 999999.999999
PR10   6771.115463  22836.006445   9208.116979 999999.999999
PR11  14157.298802  19312.868364  -8660.342880 999999.999999
PR12  13182.758594   4223.844654 -21487.850958 999999.999999
PR13   4008.659100 -13530.841463 -21264.760819 999999.999999
PR14  -6997.651360 -22858.481538  -8822.056128 999999.999999
PR15 -14200.256158 -19101.733992   9331.057671 999999.999999
PR16 -12898.208887  -3391.744279  21694.950435 999999.999999
PR17  -2619.865792 -10921.340464  22934.160666 999999.999999
PR19 -24856.081384    718.994761  -5688.427001 999999.999999
PR20 -13956.639135   8106.704866 -19722.479545 999999.999999
PR21   2995.163510  10910.296431 -22850.757450 999999.999999
PR22  19536.582017   8021.238140 -14402.697998 999999.999999
PR23  25316.819791    182.113234   3098.292143 999999.999999
PR24  16616.643851  -7316.491489  17900.952500 999999.999999
*  2014  2 17  9 15  0.00000000
PG01  21972.480709  11787.008110   9295.120773     -0.327213
PG02 -12437.024456 -21407.319898  10534.347074    479.136101
PG03  10283.060728  12632.799809 -21539.499692    326.896298
PG04   2713.460556 -17145.669973  19731.903753      5.605912
PG05  -4786.039177 -22368.229017 -13407.313112   -388.173288
PG06   1228.547916  15917.736024 -21127.229479    278.804957
PG07  18006.821871   -939.983813 -19543.219181    314.826282
PG08  10079.797729 -10243.270830 -22165.055990     11.968940
PG09   8621.007364 -12367.890805 -22389.060882    306.136348
PG10   8758.375169 -24515.204313   3613.529210   -114.662817
PG11  23402.936317  12725.414582  -1933.701478   -465.020365
PG12 -12780.812027  -8021.231235  21829.716307    186.973047
PG13  26162.905860  -5021.574466     25.342883     28.755287
PG14 -16875.676471  14229.280710  14878.234544    197.594424
PG15 -19048.684883  -6941.683718 -17353.987734   -163.598376
PG16   3412.152013  21980.483308 -14272.410635   -231.178874
PG17  15322.017967 -15111.456437  15661.792335    -69.017634
PG18 -15691.190400  12709.396803 -16652.888469    302.415223
PG19  17715.248884   9052.717191 -17933.102877   -439.410674
PG20  15137.657496   5119.937438  21027.799770    162.479308
PG21 -17667.048982   2994.092874 -19136.845167   -344.446867
PG22 -11068.253331  22750.849140  -7623.624676    213.923533
PG23  24111.289656   1518.786947  11578.573143      3.236820
PG24 -21362.356344 -15176.717807   4603.066065    -23.458338
PG25 -15634.830243   6502.656383  20371.250094     14.952744
PG26  -6826.722638 -13969.393551 -22223.034126    162.643943
PG27   4523.660513  14494.056275 -21793.634412    -18.872760
PG28  12913.179253 -20668.677193  -9774.758363    333.189673
PG29 -26009.332807   4198.291847   3228.930237    511.656432
PG31    718.828359  18623.830837  18958.374374    333.298674
PG32   7959.115250  17917.545779  18223.030941   -484.206314
PR01  14702.278779  -6732.661970  19714.718565 999999.999999
PR02  14531.540403 -20101.793966   6032.143758 999999.999999
PR03   6052.896823 -21900.994936 -11577.737824 999999.999999
PR04  -6169.225561 -10688.664038 -22316.349246 999999.999999
PR05 -14662.662490   6558.646264 -19833.852930 999999.999999
PR06 -14389.025956  20353.276580  -5374.549681 999999.999999
PR07  -5954.374721  21856.134063  11741.115073 999999.999999
PR08   5969.200985  10987.603844  22282.470622 999999.999999
PR09  -5556.421862  11038.901620  22277.487836 999999.999999
PR10   6321.414129  21582.494156  12088.662071 999999.999999
PR11  14740.875860  19998.383963  -5575.606274 999999.999999
PR12  14459.615199   6439.508605 -20081.291964 999999.999999
PR13   5241.100044 -11138.080944 -22357.164407 999999.999999
PR14  -6563.487840 -21649.530938 -11735.995423 999999.999999
PR15 -14845.199142 -19845.486684   6281.215803 999999.999999
PR16 -14187.120207  -5658.472085  20372.880466 999999.999999
PR17    213.865206 -10813.254111  23130.739825 999999.999999
PR19 -25370.281854    863.417741  -2517.343304 999999.999999
PR20 -16282.283342   8096.268607 -17852.012401 999999.999999
PR21    159.482686  10797.485416 -23106.250987 999999.999999
PR22  17621.364595   7831.356363 -16769.410841 999999.999999
PR23  25506.298527     25.110518   -114.860024 999999.999999
PR24  18696.340393  -7362.102235  15697.835000 999999.999999
EOF


